[{"OBJECT_NAME":"STARLINK-31534","OBJECT_ID":"2024-064A","EPOCH":"2026-03-09T07:41:28.687488","MEAN_MOTION":15.27574218,"ECCENTRICITY":9.365e-5,"INCLINATION":43.0026,"RA_OF_ASC_NODE":57.8874,"ARG_OF_PERICENTER":254.4263,"MEAN_ANOMALY":105.6485,"EPHEMERIS_TYPE":0,"CLASSIFICATION_TYPE":"U","NORAD_CAT_ID":59398,"ELEMENT_SET_NO":999,"REV_AT_EPOCH":10911,"BSTAR":-1.7247775e-5,"MEAN_MOTION_DOT":-7.36e-6,"MEAN_MOTION_DDOT":0},{"OBJECT_NAME":"CP8 (IPEX)","OBJECT_ID":"2013-072K","EPOCH":"2026-03-09T13:09:38.394720","MEAN_MOTION":15.06461805,"ECCENTRICITY":0.0159394,"INCLINATION":120.4656,"RA_OF_ASC_NODE":280.3913,"ARG_OF_PERICENTER":252.2911,"MEAN_ANOMALY":106.0698,"EPHEMERIS_TYPE":0,"CLASSIFICATION_TYPE":"U","NORAD_CAT_ID":39471,"ELEMENT_SET_NO":999,"REV_AT_EPOCH":10021,"BSTAR":0.00057825,"MEAN_MOTION_DOT":0.0001114,"MEAN_MOTION_DDOT":0}]
